     2.100          NAVIGATION                              RINEX VERSION / TYPE
fic2rin                                 04/20/2017 00:18:04 PGM / RUN BY / DATE
                                                            END OF HEADER
 9 17  4 19  4  0  0.0  .345814973116D-03  .784439180279D-11  .000000000000D+00
     .124000000000D+03  .160000000000D+02  .481162899509D-08 -.913636214878D+00
     .771135091782D-06  .828740536235D-03  .725127756596D-05  .515364767075D+04
     .273600000000D+06 -.186264514923D-08  .313585715452D+00  .465661287308D-07
     .954036173722D+00  .235500000000D+03  .187693269808D+01 -.813962476233D-08
    -.195008122871D-09  .100000000000D+01  .194500000000D+04  .000000000000D+00
     .240000000000D+01  .000000000000D+00  .139698386192D-08  .124000000000D+03
     .266406000000D+06  .400000000000D+01
10 17  4 19  4  0  0.0 -.732862390578D-04  .795807864051D-11  .000000000000D+00
     .170000000000D+02  .825000000000D+01  .471555356459D-08  .975167996118D+00
     .581145286560D-06  .244682410266D-02  .815466046333D-05  .515367250443D+04
     .273600000000D+06  .111758708954D-07 -.726411624086D+00  .298023223877D-07
     .959962763537D+00  .220156250000D+03 -.279325837374D+01 -.809212278368D-08
     .621454457501D-10  .100000000000D+01  .194500000000D+04  .000000000000D+00
     .240000000000D+01  .000000000000D+00  .186264514923D-08  .170000000000D+02
     .266406000000D+06  .400000000000D+01
11 17  4 19  4  0  0.0 -.682306010276D-03 -.250111042988D-11  .000000000000D+00
     .108000000000D+03 -.839687500000D+02  .591953228657D-08  .255177376517D+01
    -.436790287495D-05  .166654620552D-01  .635348260403D-05  .515370909119D+04
     .273600000000D+06  .219792127609D-06 -.216511388580D+01 -.102445483208D-06
     .900281421523D+00  .221125000000D+03  .163429228768D+01 -.849713965426D-08
    -.792890169915D-10  .100000000000D+01  .194500000000D+04  .000000000000D+00
     .340000000000D+01  .000000000000D+00 -.121071934700D-07  .108000000000D+03
     .266406000000D+06  .400000000000D+01
12 17  4 19  4  0  0.0  .385210849345D-03 -.682121026330D-12  .000000000000D+00
     .880000000000D+02  .361875000000D+02  .380444418466D-08  .195383224064D+01
     .188313424587D-05  .667569879442D-02  .624358654022D-05  .515355129814D+04
     .273600000000D+06 -.167638063431D-06  .247594593007D+01 -.651925802231D-07
     .989433928500D+00  .272343750000D+03  .836523864554D+00 -.784104089654D-08
     .183579075377D-09  .100000000000D+01  .194500000000D+04  .000000000000D+00
     .240000000000D+01  .000000000000D+00 -.125728547573D-07  .880000000000D+02
     .266406000000D+06  .400000000000D+01
15 17  4 19  4  0  0.0 -.348175875843D-03 -.795807864051D-12  .000000000000D+00
     .890000000000D+02  .143437500000D+02  .529486340946D-08 -.186078441291D+01
     .705942511559D-06  .911187124439D-02  .665336847305D-05  .515377598190D+04
     .273600000000D+06  .558793544769D-07  .252964254005D+00 -.115483999252D-06
     .929674664156D+00  .234937500000D+03  .580361491689D+00 -.832677541505D-08
    -.828605943335D-10  .100000000000D+01  .194500000000D+04  .000000000000D+00
     .240000000000D+01  .000000000000D+00 -.107102096081D-07  .890000000000D+02
     .266406000000D+06  .400000000000D+01
16 17  4 19  4  0  0.0  .316263176501D-04  .795807864051D-12  .000000000000D+00
     .700000000000D+02  .418750000000D+02  .388373320165D-08 -.441731478746D-01
     .236183404922D-05  .936762080528D-02  .561960041523D-05  .515368275642D+04
     .273600000000D+06  .150874257088D-06  .249479572461D+01  .614672899246D-07
     .989923375539D+00  .286343750000D+03  .433436812234D+00 -.802354849872D-08
     .205722854897D-09  .100000000000D+01  .194500000000D+04  .000000000000D+00
     .240000000000D+01  .000000000000D+00 -.107102096081D-07  .700000000000D+02
     .266406000000D+06  .400000000000D+01
17 17  4 19  4  0  0.0 -.183361116797D-03  .159161572810D-11  .000000000000D+00
     .960000000000D+02 -.365000000000D+02  .437446792843D-08 -.102823788614D+01
    -.163726508617D-05  .116251055151D-01  .514090061188D-05  .515361505127D+04
     .273600000000D+06 -.912696123123D-07 -.277087920302D+01  .290572643280D-06
     .979827283408D+00  .293156250000D+03 -.185060129910D+01 -.820284168128D-08
     .585738684082D-10  .100000000000D+01  .194500000000D+04  .000000000000D+00
     .340000000000D+01  .000000000000D+00 -.111758708954D-07  .960000000000D+02
     .266406000000D+06  .400000000000D+01
20 17  4 19  4  0  0.0  .468869693577D-03  .159161572810D-11  .000000000000D+00
     .580000000000D+02 -.190625000000D+01  .531879297765D-08 -.189907190634D+01
    -.558793544769D-07  .437914894428D-02  .829808413982D-05  .515366260338D+04
     .273600000000D+06  .279396772385D-07 -.818530877725D+00  .651925802231D-07
     .926820266676D+00  .201500000000D+03  .158507282291D+01 -.833248993879D-08
     .842892252703D-10  .100000000000D+01  .194500000000D+04  .000000000000D+00
     .240000000000D+01  .000000000000D+00 -.838190317154D-08  .580000000000D+02
     .266406000000D+06  .400000000000D+01
21 17  4 19  4  0  0.0 -.511623919010D-03  .204636307899D-11  .000000000000D+00
     .980000000000D+02 -.648125000000D+02  .515092884258D-08  .136752897258D+01
    -.377371907234D-05  .240193137433D-01  .839121639729D-05  .515370220566D+04
     .273600000000D+06 -.290572643280D-06 -.180816734870D+01 -.566244125366D-06
     .939062045624D+00  .215187500000D+03 -.168268460101D+01 -.844356599413D-08
     .732173355102D-10  .100000000000D+01  .194500000000D+04  .000000000000D+00
     .340000000000D+01  .000000000000D+00 -.977888703346D-08  .980000000000D+02
     .266406000000D+06  .400000000000D+01
22 17  4 19  4  0  0.0  .368393957615D-04 -.119371179608D-10  .000000000000D+00
     .880000000000D+02  .743750000000D+01  .548451416632D-08 -.149407601803D+01
     .424683094025D-06  .759219925385D-02  .823847949505D-05  .515353409576D+04
     .273600000000D+06  .763684511185D-07 -.767195189308D+00  .227242708206D-06
     .923531931120D+00  .197937500000D+03 -.176604362324D+01 -.840856453618D-08
     .131791203918D-09  .100000000000D+01  .194500000000D+04  .000000000000D+00
     .340000000000D+01  .000000000000D+00 -.176951289177D-07  .880000000000D+02
     .266406000000D+06  .400000000000D+01
23 17  4 19  4  0  0.0 -.210100319237D-03 -.795807864051D-12  .000000000000D+00
     .900000000000D+02  .128125000000D+02  .493020536284D-08 -.229431737690D+01
     .478699803352D-06  .115359611809D-01  .713765621185D-05  .515375956726D+04
     .273600000000D+06  .614672899246D-07  .315765597979D+00 -.111758708954D-06
     .944911274867D+00  .231968750000D+03 -.247901038357D+01 -.805783564120D-08
    -.100004165575D-09  .100000000000D+01  .194500000000D+04  .000000000000D+00
     .240000000000D+01  .000000000000D+00 -.204890966415D-07  .900000000000D+02
     .266406000000D+06  .400000000000D+01
24 17  4 19  4  0  0.0 -.335811637342D-04 -.568434188608D-12  .000000000000D+00
     .310000000000D+02  .295937500000D+02  .465090801470D-08 -.293278810763D+01
     .156648457050D-05  .564519502223D-02  .812858343124D-05  .515369772911D+04
     .273600000000D+06 -.111758708954D-07  .133938377169D+01  .000000000000D+00
     .945631729837D+00  .215812500000D+03  .484852962609D+00 -.808069373619D-08
    -.112861844006D-09  .100000000000D+01  .194500000000D+04  .000000000000D+00
     .240000000000D+01  .000000000000D+00  .279396772385D-08  .310000000000D+02
     .266406000000D+06  .400000000000D+01
25 17  4 19  4  0  0.0 -.372527632862D-03 -.659383658785D-11  .000000000000D+00
     .380000000000D+02  .380000000000D+02  .409767068443D-08  .139254573486D+01
     .190921127796D-05  .646842841525D-02  .621005892754D-05  .515360839081D+04
     .273600000000D+06 -.987201929092D-07  .242113662460D+01  .949949026108D-07
     .977353902942D+00  .266500000000D+03  .791171367715D+00 -.806926468869D-08
     .104290058385D-09  .100000000000D+01  .194500000000D+04  .000000000000D+00
     .240000000000D+01  .000000000000D+00  .558793544769D-08  .380000000000D+02
     .266406000000D+06  .400000000000D+01
26 17  4 19  4  0  0.0 -.512277707458D-03  .295585778076D-11  .000000000000D+00
     .270000000000D+02  .440625000000D+02  .450554481688D-08  .808302883048D+00
     .233203172684D-05  .182901532389D-02  .558234751225D-05  .515368985748D+04
     .273600000000D+06  .484287738800D-07  .240639502147D+01  .614672899246D-07
     .959138173669D+00  .271281250000D+03  .647623856590D-01 -.817855495536D-08
     .147506144223D-09  .100000000000D+01  .194500000000D+04  .000000000000D+00
     .240000000000D+01  .000000000000D+00  .745058059692D-08  .270000000000D+02
     .266406000000D+06  .400000000000D+01
27 17  4 19  4  0  0.0  .243190675974D-03  .636646291241D-11  .000000000000D+00
     .220000000000D+02 -.440000000000D+02  .441268380599D-08 -.924109268815D+00
    -.226497650146D-05  .470168772154D-02  .481307506561D-05  .515366079712D+04
     .273600000000D+06  .577419996262D-07 -.282262290221D+01 -.316649675369D-07
     .974745388344D+00  .291843750000D+03  .318208643376D+00 -.815819696451D-08
     .760745973838D-10  .100000000000D+01  .194500000000D+04  .000000000000D+00
     .240000000000D+01  .000000000000D+00  .139698386192D-08  .220000000000D+02
     .266406000000D+06  .400000000000D+01
28 17  4 19  4  0  0.0  .606093555689D-03  .318323145621D-11  .000000000000D+00
     .370000000000D+02  .398125000000D+02  .397123684653D-08 -.120656228376D+00
     .196136534214D-05  .197511864826D-01  .653788447380D-05  .515364916801D+04
     .273600000000D+06 -.320374965668D-06  .249940888317D+01  .298023223877D-07
     .988708578607D+00  .272281250000D+03 -.157065393366D+01 -.825355807954D-08
     .237509893240D-09  .100000000000D+01  .194500000000D+04  .000000000000D+00
     .240000000000D+01  .000000000000D+00 -.111758708954D-07  .370000000000D+02
     .266406000000D+06  .400000000000D+01
